GSAT0101 (PRN E11)      
1 37846U 11060A   22157.69311863 -.00000074  00000+0  00000+0 0  9990
2 37846  56.9925  21.6278 0003981  37.0753 323.0063  1.70475157 66037
GSAT0102 (PRN E12)      
1 37847U 11060B   22161.43204528 -.00000069  00000+0  00000+0 0  9991
2 37847  56.9945  21.5258 0003666   6.7697 174.6128  1.70475354 66106
GSAT0103 (PRN E19)      
1 38857U 12055A   22161.25220274  .00000086  00000+0  00000+0 0  9992
2 38857  55.1369 141.8967 0005370 271.0820  88.8437  1.70473680 59988
GSAT0104 (PRN E20)      
1 38858U 12055B   22161.22233800  .00000086  00000+0  00000+0 0  9999
2 38858  55.1374 141.8989 0002942 273.4339  86.5199  1.70473960 60097
GSAT0201 (PRN E18)      
1 40128U 14050A   22161.20247071 -.00000080  00000+0  00000+0 0  9997
2 40128  50.2895 332.5706 1628210 123.7710 252.8528  1.85518787 51089
GSAT0202 (PRN E14)      
1 40129U 14050B   22160.38549423 -.00000077  00000+0  00000+0 0  9998
2 40129  50.3151 331.6636 1625333 124.5501 251.9141  1.85519400 53231
GSAT0203 (PRN E26)      
1 40544U 15017A   22158.06041790 -.00000074  00000+0  00000+0 0  9996
2 40544  56.7879  21.6525 0001098 278.7151  81.3264  1.70475803 44121
GSAT0204 (PRN E22)      
1 40545U 15017B   22157.72654811 -.00000074  00000+0  00000+0 0  9993
2 40545  56.7931  21.6740 0000734 213.1507 146.8985  1.70475606  7165
GSAT0205 (PRN E24)      
1 40889U 15045A   22158.08019996 -.00000010  00000+0  00000+0 0  9994
2 40889  55.6298 262.2507 0003734  19.0594 340.9829  1.70473986 41932
GSAT0206 (PRN E30)      
1 40890U 15045B   22159.47414169 -.00000011  00000+0  00000+0 0  9992
2 40890  55.6278 262.2081 0001952   2.2269 357.7996  1.70473932 41989
GSAT0209 (PRN E09)      
1 41174U 15079A   22160.82168556  .00000087  00000+0  00000+0 0  9994
2 41174  55.1534 141.6119 0005502 304.9174  55.0191  1.70474336 40320
GSAT0208 (PRN E08)      
1 41175U 15079B   22159.28139429  .00000085  00000+0  00000+0 0  9998
2 41175  55.1512 141.6528 0004814 303.9580  55.9858  1.70474362 40133
GSAT0211 (PRN E02)      
1 41549U 16030A   22160.57412374 -.00000012  00000+0  00000+0 0  9999
2 41549  55.7726 262.1100 0002959 320.8011  39.2021  1.70475450 37616
GSAT0210 (PRN E01)      
1 41550U 16030B   22160.86675613 -.00000011  00000+0  00000+0 0  9999
2 41550  55.7721 262.1033 0002684 276.6292  83.3651  1.70475501 37630
GSAT0207 (PRN E07)      
1 41859U 16069A   22161.11470271  .00000086  00000+0  00000+0 0  9996
2 41859  54.8137 141.7869 0005698 294.2015  65.7266  1.70472979 34379
GSAT0212 (PRN E03)      
1 41860U 16069B   22160.96810686  .00000086  00000+0  00000+0 0  9998
2 41860  54.8110 141.7887 0004255 311.1882  48.7632  1.70472961 34639
GSAT0213 (PRN E04)      
1 41861U 16069C   22161.33353125  .00000085  00000+0  00000+0 0  9990
2 41861  54.8136 141.7837 0005413 277.3420  82.5832  1.70473093 34490
GSAT0214 (PRN E05)      
1 41862U 16069D   22160.89402161  .00000086  00000+0  00000+0 0  9997
2 41862  54.8115 141.7903 0004500 280.8536  79.0841  1.70473107 34616
GSAT0215 (PRN E21)      
1 43055U 17079A   22160.21156351 -.00000011  00000+0  00000+0 0  9997
2 43055  55.7483 261.9524 0002157 267.4476  92.5529  1.70474646 27944
GSAT0216 (PRN E25)      
1 43056U 17079B   22160.50379296 -.00000011  00000+0  00000+0 0  9995
2 43056  55.7483 261.9441 0003843 274.1741  85.8070  1.70474730 27935
GSAT0217 (PRN E27)      
1 43057U 17079C   22161.31060992 -.00000011  00000+0  00000+0 0  9996
2 43057  55.7457 261.9217 0003336 288.8415  71.1478  1.70474718 27964
GSAT0218 (PRN E31)      
1 43058U 17079D   22160.35747117 -.00000011  00000+0  00000+0 0  9991
2 43058  55.7472 261.9453 0004312 270.1156  89.8601  1.70474666 27949
GSAT0221 (PRN E15)      
1 43564U 18060A   22160.84268602 -.00000069  00000+0  00000+0 0  9998
2 43564  57.1713  21.3900 0002076 309.5152  50.5244  1.70475523 24137
GSAT0222 (PRN E33)      
1 43565U 18060B   22158.71620078 -.00000071  00000+0  00000+0 0  9994
2 43565  57.1725  21.4481 0002261 328.2737  31.7675  1.70475577 24148
GSAT0219 (PRN E36)      
1 43566U 18060C   22157.76358233 -.00000073  00000+0  00000+0 0  9992
2 43566  57.1726  21.4759 0002107 335.5946  24.4496  1.70475651 24109
GSAT0220 (PRN E13)      
1 43567U 18060D   22157.98367868 -.00000073  00000+0  00000+0 0  9991
2 43567  57.1728  21.4711 0001970 324.5783  35.4629  1.70475574 24096
GSAT0223                
1 49809U 21116A   22159.89240108 -.00000070  00000+0  00000+0 0  9998
2 49809  57.1656  21.3178 0001678 119.8633  61.5933  1.70475608  3139
GSAT0224                
1 49810U 21116B   22160.29395394 -.00000069  00000+0  00000+0 0  9992
2 49810  57.1668  21.3049 0001843  97.4539  82.9271  1.70475586  3150
